{
  "links" : {
    "next" : "https://api.nasa.gov/neo/rest/v1/neo/browse?page=29&size=20&api_key=jqAGvNAwUIBu4fl9FSOjdm3V4F7hIglRzI6pdX9d",
    "prev" : "https://api.nasa.gov/neo/rest/v1/neo/browse?page=27&size=20&api_key=jqAGvNAwUIBu4fl9FSOjdm3V4F7hIglRzI6pdX9d",
    "self" : "https://api.nasa.gov/neo/rest/v1/neo/browse?page=28&size=20&api_key=jqAGvNAwUIBu4fl9FSOjdm3V4F7hIglRzI6pdX9d"
  },
  "page" : {
    "size" : 20,
    "total_elements" : 20750,
    "total_pages" : 1038,
    "number" : 28
  },
  "near_earth_objects" : [ {
    "links" : {
      "self" : "https://api.nasa.gov/neo/rest/v1/neo/3342315?api_key=jqAGvNAwUIBu4fl9FSOjdm3V4F7hIglRzI6pdX9d"
    },
    "neo_reference_id" : "3342315",
    "name" : "(2006 QJ65)",
    "designation" : "2006 QJ65",
    "nasa_jpl_url" : "http://ssd.jpl.nasa.gov/sbdb.cgi?sstr=3342315",
    "absolute_magnitude_h" : 22.0,
    "estimated_diameter" : {
      "kilometers" : {
        "estimated_diameter_min" : 0.1058168859,
        "estimated_diameter_max" : 0.2366137501
      },
      "meters" : {
        "estimated_diameter_min" : 105.8168859331,
        "estimated_diameter_max" : 236.6137501138
      },
      "miles" : {
        "estimated_diameter_min" : 0.0657515442,
        "estimated_diameter_max" : 0.1470249225
      },
      "feet" : {
        "estimated_diameter_min" : 347.1682720448,
        "estimated_diameter_max" : 776.2918559233
      }
    },
    "is_potentially_hazardous_asteroid" : false,
    "close_approach_data" : [ {
      "close_approach_date" : "1924-01-07",
      "epoch_date_close_approach" : -1451145600000,
      "relative_velocity" : {
        "kilometers_per_second" : "7.1295628557",
        "kilometers_per_hour" : "25666.426280369",
        "miles_per_hour" : "15948.1191518215"
      },
      "miss_distance" : {
        "astronomical" : "1.5681859535",
        "lunar" : "610.0243530273",
        "kilometers" : "234597280",
        "miles" : "145771984"
      },
      "orbiting_body" : "Juptr"
    }, {
      "close_approach_date" : "2006-09-30",
      "epoch_date_close_approach" : 1159599600000,
      "relative_velocity" : {
        "kilometers_per_second" : "14.0946251002",
        "kilometers_per_hour" : "50740.6503607704",
        "miles_per_hour" : "31528.2668866687"
      },
      "miss_distance" : {
        "astronomical" : "0.0515254319",
        "lunar" : "20.0433940887",
        "kilometers" : "7708095",
        "miles" : "4789588"
      },
      "orbiting_body" : "Earth"
    } ],
    "orbital_data" : {
      "orbit_id" : "7",
      "orbit_determination_date" : "2017-04-06 09:08:14",
      "first_observation_date" : "2006-08-27",
      "last_observation_date" : "2006-09-18",
      "data_arc_in_days" : 22,
      "observations_used" : 40,
      "orbit_uncertainty" : "8",
      "minimum_orbit_intersection" : ".0469828",
      "jupiter_tisserand_invariant" : "3.022",
      "epoch_osculation" : "2453992.5",
      "eccentricity" : ".6811983222894542",
      "semi_major_axis" : "2.618933933300226",
      "inclination" : "5.073837236107714",
      "ascending_node_longitude" : "153.1253512885303",
      "orbital_period" : "1548.050917364349",
      "perihelion_distance" : ".8349205317491908",
      "perihelion_argument" : "266.4838900121693",
      "aphelion_distance" : "4.402947334851262",
      "perihelion_time" : "2454045.134787488035",
      "mean_anomaly" : "347.7597543574641",
      "mean_motion" : ".2325504904017769",
      "equinox" : "J2000",
      "orbit_class" : {
        "orbit_class_type" : "APO",
        "orbit_class_range" : "a (semi-major axis) > 1.0 AU; q (perihelion) < 1.017 AU",
        "orbit_class_description" : "Near-Earth asteroid orbits which cross the Earth’s orbit similar to that of 1862 Apollo"
      }
    },
    "is_sentry_object" : false
  }, {
    "links" : {
      "self" : "https://api.nasa.gov/neo/rest/v1/neo/3339595?api_key=jqAGvNAwUIBu4fl9FSOjdm3V4F7hIglRzI6pdX9d"
    },
    "neo_reference_id" : "3339595",
    "name" : "(2006 QE89)",
    "designation" : "2006 QE89",
    "nasa_jpl_url" : "http://ssd.jpl.nasa.gov/sbdb.cgi?sstr=3339595",
    "absolute_magnitude_h" : 20.9,
    "estimated_diameter" : {
      "kilometers" : {
        "estimated_diameter_min" : 0.1756123185,
        "estimated_diameter_max" : 0.3926810818
      },
      "meters" : {
        "estimated_diameter_min" : 175.6123184804,
        "estimated_diameter_max" : 392.6810818086
      },
      "miles" : {
        "estimated_diameter_min" : 0.1091204019,
        "estimated_diameter_max" : 0.2440006365
      },
      "feet" : {
        "estimated_diameter_min" : 576.1559189633,
        "estimated_diameter_max" : 1288.3238004408
      }
    },
    "is_potentially_hazardous_asteroid" : false,
    "close_approach_data" : [ {
      "close_approach_date" : "2006-08-25",
      "epoch_date_close_approach" : 1156489200000,
      "relative_velocity" : {
        "kilometers_per_second" : "16.4821593246",
        "kilometers_per_hour" : "59335.773568452",
        "miles_per_hour" : "36868.9421931306"
      },
      "miss_distance" : {
        "astronomical" : "0.0972022337",
        "lunar" : "37.811668396",
        "kilometers" : "14541247",
        "miles" : "9035512"
      },
      "orbiting_body" : "Earth"
    } ],
    "orbital_data" : {
      "orbit_id" : "15",
      "orbit_determination_date" : "2017-04-06 09:16:49",
      "first_observation_date" : "2006-08-14",
      "last_observation_date" : "2006-09-07",
      "data_arc_in_days" : 24,
      "observations_used" : 40,
      "orbit_uncertainty" : "8",
      "minimum_orbit_intersection" : ".0931368",
      "jupiter_tisserand_invariant" : "3.607",
      "epoch_osculation" : "2453975.5",
      "eccentricity" : ".5652908409153063",
      "semi_major_axis" : "1.95362224998334",
      "inclination" : "20.97288600178835",
      "ascending_node_longitude" : "319.8009399962164",
      "orbital_period" : "997.3769246451401",
      "perihelion_distance" : ".8492574854594049",
      "perihelion_argument" : "75.7964746071205",
      "aphelion_distance" : "3.057987014507275",
      "perihelion_time" : "2454020.972357447815",
      "mean_anomaly" : "343.5868985167892",
      "mean_motion" : ".3609467906309197",
      "equinox" : "J2000",
      "orbit_class" : {
        "orbit_class_type" : "APO",
        "orbit_class_range" : "a (semi-major axis) > 1.0 AU; q (perihelion) < 1.017 AU",
        "orbit_class_description" : "Near-Earth asteroid orbits which cross the Earth’s orbit similar to that of 1862 Apollo"
      }
    },
    "is_sentry_object" : false
  }, {
    "links" : {
      "self" : "https://api.nasa.gov/neo/rest/v1/neo/3340060?api_key=jqAGvNAwUIBu4fl9FSOjdm3V4F7hIglRzI6pdX9d"
    },
    "neo_reference_id" : "3340060",
    "name" : "(2006 QN111)",
    "designation" : "2006 QN111",
    "nasa_jpl_url" : "http://ssd.jpl.nasa.gov/sbdb.cgi?sstr=3340060",
    "absolute_magnitude_h" : 23.8,
    "estimated_diameter" : {
      "kilometers" : {
        "estimated_diameter_min" : 0.046190746,
        "estimated_diameter_max" : 0.1032856481
      },
      "meters" : {
        "estimated_diameter_min" : 46.1907460282,
        "estimated_diameter_max" : 103.2856480504
      },
      "miles" : {
        "estimated_diameter_min" : 0.0287015901,
        "estimated_diameter_max" : 0.0641787064
      },
      "feet" : {
        "estimated_diameter_min" : 151.544447199,
        "estimated_diameter_max" : 338.8636855496
      }
    },
    "is_potentially_hazardous_asteroid" : false,
    "close_approach_data" : [ {
      "close_approach_date" : "2006-08-21",
      "epoch_date_close_approach" : 1156143600000,
      "relative_velocity" : {
        "kilometers_per_second" : "11.0240076982",
        "kilometers_per_hour" : "39686.4277136384",
        "miles_per_hour" : "24659.6028201772"
      },
      "miss_distance" : {
        "astronomical" : "0.0182800673",
        "lunar" : "7.1109457016",
        "kilometers" : "2734659",
        "miles" : "1699238.375"
      },
      "orbiting_body" : "Earth"
    } ],
    "orbital_data" : {
      "orbit_id" : "7",
      "orbit_determination_date" : "2017-04-06 09:08:12",
      "first_observation_date" : "2006-08-27",
      "last_observation_date" : "2006-09-03",
      "data_arc_in_days" : 7,
      "observations_used" : 14,
      "orbit_uncertainty" : "9",
      "minimum_orbit_intersection" : ".0084368",
      "jupiter_tisserand_invariant" : "3.177",
      "epoch_osculation" : "2453977.5",
      "eccentricity" : ".5980511655248785",
      "semi_major_axis" : "2.487536535470532",
      "inclination" : "11.74684490050443",
      "ascending_node_longitude" : "143.8390933298578",
      "orbital_period" : "1433.021245193699",
      "perihelion_distance" : ".9998624111466621",
      "perihelion_argument" : "171.7708608458833",
      "aphelion_distance" : "3.975210659794402",
      "perihelion_time" : "2453959.308605266095",
      "mean_anomaly" : "4.569996520407898",
      "mean_motion" : ".2512174897667615",
      "equinox" : "J2000",
      "orbit_class" : {
        "orbit_class_type" : "APO",
        "orbit_class_range" : "a (semi-major axis) > 1.0 AU; q (perihelion) < 1.017 AU",
        "orbit_class_description" : "Near-Earth asteroid orbits which cross the Earth’s orbit similar to that of 1862 Apollo"
      }
    },
    "is_sentry_object" : true,
    "sentry_data" : "https://api.nasa.gov/neo/rest/v1/neo/sentry/3340060?api_key=jqAGvNAwUIBu4fl9FSOjdm3V4F7hIglRzI6pdX9d"
  } ]
}